[{"OBJECT_NAME":"STARLINK-32950","OBJECT_ID":"2025-075U","EPOCH":"2026-03-26T15:25:47.129376","MEAN_MOTION":15.27615821,"ECCENTRICITY":0.000157,"INCLINATION":43.003,"RA_OF_ASC_NODE":174.5309,"ARG_OF_PERICENTER":268.4366,"MEAN_ANOMALY":91.6306,"EPHEMERIS_TYPE":0,"CLASSIFICATION_TYPE":"U","NORAD_CAT_ID":63566,"ELEMENT_SET_NO":999,"REV_AT_EPOCH":5452,"BSTAR":0.00072966,"MEAN_MOTION_DOT":0.00019893,"MEAN_MOTION_DDOT":0},{"OBJECT_NAME":"STARLINK-32954","OBJECT_ID":"2025-075V","EPOCH":"2026-03-26T15:44:18.070080","MEAN_MOTION":15.27615107,"ECCENTRICITY":0.0001239,"INCLINATION":42.9993,"RA_OF_ASC_NODE":174.6582,"ARG_OF_PERICENTER":268.8467,"MEAN_ANOMALY":91.2243,"EPHEMERIS_TYPE":0,"CLASSIFICATION_TYPE":"U","NORAD_CAT_ID":63567,"ELEMENT_SET_NO":999,"REV_AT_EPOCH":5452,"BSTAR":0.00081238,"MEAN_MOTION_DOT":0.00022184,"MEAN_MOTION_DDOT":0},{"OBJECT_NAME":"STARLINK-32940","OBJECT_ID":"2025-075W","EPOCH":"2026-03-26T15:51:42.428736","MEAN_MOTION":15.27613126,"ECCENTRICITY":9.64e-5,"INCLINATION":42.9995,"RA_OF_ASC_NODE":174.697,"ARG_OF_PERICENTER":269.9668,"MEAN_ANOMALY":90.1073,"EPHEMERIS_TYPE":0,"CLASSIFICATION_TYPE":"U","NORAD_CAT_ID":63568,"ELEMENT_SET_NO":999,"REV_AT_EPOCH":5452,"BSTAR":0.00097994,"MEAN_MOTION_DOT":0.00026829,"MEAN_MOTION_DDOT":0},{"OBJECT_NAME":"STARLINK-32959","OBJECT_ID":"2025-076A","EPOCH":"2026-03-26T16:18:59.312160","MEAN_MOTION":15.2759475,"ECCENTRICITY":2.31e-5,"INCLINATION":42.998,"RA_OF_ASC_NODE":229.7239,"ARG_OF_PERICENTER":216.0102,"MEAN_ANOMALY":144.0734,"EPHEMERIS_TYPE":0,"CLASSIFICATION_TYPE":"U","NORAD_CAT_ID":63569,"ELEMENT_SET_NO":999,"REV_AT_EPOCH":5438,"BSTAR":0.0008218,"MEAN_MOTION_DOT":0.00022431,"MEAN_MOTION_DDOT":0},{"OBJECT_NAME":"STARLINK-32956","OBJECT_ID":"2025-076B","EPOCH":"2026-03-26T18:04:01.839648","MEAN_MOTION":15.27598797,"ECCENTRICITY":0.0001572,"INCLINATION":43.0003,"RA_OF_ASC_NODE":228.5426,"ARG_OF_PERICENTER":276.047,"MEAN_ANOMALY":84.0203,"EPHEMERIS_TYPE":0,"CLASSIFICATION_TYPE":"U","NORAD_CAT_ID":63570,"ELEMENT_SET_NO":999,"REV_AT_EPOCH":5439,"BSTAR":0.0013118,"MEAN_MOTION_DOT":0.00036032,"MEAN_MOTION_DDOT":0},{"OBJECT_NAME":"STARLINK-33722","OBJECT_ID":"2025-076C","EPOCH":"2026-03-26T10:34:17.317344","MEAN_MOTION":15.27602055,"ECCENTRICITY":0.0001902,"INCLINATION":43.0031,"RA_OF_ASC_NODE":226.9803,"ARG_OF_PERICENTER":272.4156,"MEAN_ANOMALY":87.6478,"EPHEMERIS_TYPE":0,"CLASSIFICATION_TYPE":"U","NORAD_CAT_ID":63571,"ELEMENT_SET_NO":999,"REV_AT_EPOCH":5438,"BSTAR":0.00076118,"MEAN_MOTION_DOT":0.00020757,"MEAN_MOTION_DDOT":0},{"OBJECT_NAME":"STARLINK-33739","OBJECT_ID":"2025-076D","EPOCH":"2026-03-26T09:50:05.533728","MEAN_MOTION":15.27590488,"ECCENTRICITY":8.19e-5,"INCLINATION":42.9953,"RA_OF_ASC_NODE":227.6086,"ARG_OF_PERICENTER":297.6348,"MEAN_ANOMALY":62.442,"EPHEMERIS_TYPE":0,"CLASSIFICATION_TYPE":"U","NORAD_CAT_ID":63572,"ELEMENT_SET_NO":999,"REV_AT_EPOCH":5438,"BSTAR":0.00095349,"MEAN_MOTION_DOT":0.00026077,"MEAN_MOTION_DDOT":0},{"OBJECT_NAME":"STARLINK-33683","OBJECT_ID":"2025-076E","EPOCH":"2026-03-26T09:48:14.324832","MEAN_MOTION":15.27601096,"ECCENTRICITY":0.0001049,"INCLINATION":42.9954,"RA_OF_ASC_NODE":227.5952,"ARG_OF_PERICENTER":274.7737,"MEAN_ANOMALY":85.2994,"EPHEMERIS_TYPE":0,"CLASSIFICATION_TYPE":"U","NORAD_CAT_ID":63573,"ELEMENT_SET_NO":999,"REV_AT_EPOCH":5438,"BSTAR":0.00072416,"MEAN_MOTION_DOT":0.00019731,"MEAN_MOTION_DDOT":0},{"OBJECT_NAME":"STARLINK-33732","OBJECT_ID":"2025-076G","EPOCH":"2026-03-26T17:20:30.632064","MEAN_MOTION":15.27597921,"ECCENTRICITY":0.0001705,"INCLINATION":42.9999,"RA_OF_ASC_NODE":225.658,"ARG_OF_PERICENTER":269.7275,"MEAN_ANOMALY":90.3381,"EPHEMERIS_TYPE":0,"CLASSIFICATION_TYPE":"U","NORAD_CAT_ID":63575,"ELEMENT_SET_NO":999,"REV_AT_EPOCH":5443,"BSTAR":0.00084517,"MEAN_MOTION_DOT":0.00023081,"MEAN_MOTION_DDOT":0},{"OBJECT_NAME":"STARLINK-33800","OBJECT_ID":"2025-076H","EPOCH":"2026-03-26T16:43:30.362880","MEAN_MOTION":15.27600092,"ECCENTRICITY":9.72e-5,"INCLINATION":43.0007,"RA_OF_ASC_NODE":225.458,"ARG_OF_PERICENTER":275.4039,"MEAN_ANOMALY":84.6701,"EPHEMERIS_TYPE":0,"CLASSIFICATION_TYPE":"U","NORAD_CAT_ID":63576,"ELEMENT_SET_NO":999,"REV_AT_EPOCH":5443,"BSTAR":0.0012366,"MEAN_MOTION_DOT":0.00033944,"MEAN_MOTION_DDOT":0},{"OBJECT_NAME":"STARLINK-33632","OBJECT_ID":"2025-076J","EPOCH":"2026-03-26T19:09:28.607328","MEAN_MOTION":15.27612465,"ECCENTRICITY":0.0002011,"INCLINATION":42.9985,"RA_OF_ASC_NODE":225.361,"ARG_OF_PERICENTER":280.5839,"MEAN_ANOMALY":79.4786,"EPHEMERIS_TYPE":0,"CLASSIFICATION_TYPE":"U","NORAD_CAT_ID":63577,"ELEMENT_SET_NO":999,"REV_AT_EPOCH":5444,"BSTAR":0.0013207,"MEAN_MOTION_DOT":0.00036295,"MEAN_MOTION_DDOT":0},{"OBJECT_NAME":"STARLINK-33719","OBJECT_ID":"2025-076K","EPOCH":"2026-03-26T16:56:27.279456","MEAN_MOTION":15.27608148,"ECCENTRICITY":0.0002106,"INCLINATION":43.0026,"RA_OF_ASC_NODE":225.5327,"ARG_OF_PERICENTER":282.1352,"MEAN_ANOMALY":77.9263,"EPHEMERIS_TYPE":0,"CLASSIFICATION_TYPE":"U","NORAD_CAT_ID":63578,"ELEMENT_SET_NO":999,"REV_AT_EPOCH":5443,"BSTAR":0.0011015,"MEAN_MOTION_DOT":0.000302,"MEAN_MOTION_DDOT":0},{"OBJECT_NAME":"STARLINK-33755","OBJECT_ID":"2025-076L","EPOCH":"2026-03-26T09:07:30.821376","MEAN_MOTION":15.27603757,"ECCENTRICITY":0.00021,"INCLINATION":43.0029,"RA_OF_ASC_NODE":227.3009,"ARG_OF_PERICENTER":268.9291,"MEAN_ANOMALY":91.132,"EPHEMERIS_TYPE":0,"CLASSIFICATION_TYPE":"U","NORAD_CAT_ID":63579,"ELEMENT_SET_NO":999,"REV_AT_EPOCH":5438,"BSTAR":0.00085098,"MEAN_MOTION_DOT":0.00023246,"MEAN_MOTION_DDOT":0},{"OBJECT_NAME":"STARLINK-33752","OBJECT_ID":"2025-076M","EPOCH":"2026-03-26T20:25:08.246496","MEAN_MOTION":15.27603353,"ECCENTRICITY":4.15e-5,"INCLINATION":42.9953,"RA_OF_ASC_NODE":224.8961,"ARG_OF_PERICENTER":103.9214,"MEAN_ANOMALY":256.1684,"EPHEMERIS_TYPE":0,"CLASSIFICATION_TYPE":"U","NORAD_CAT_ID":63580,"ELEMENT_SET_NO":999,"REV_AT_EPOCH":5445,"BSTAR":0.0011559,"MEAN_MOTION_DOT":0.00031705,"MEAN_MOTION_DDOT":0},{"OBJECT_NAME":"STARLINK-33714","OBJECT_ID":"2025-076N","EPOCH":"2026-03-26T16:45:21.055968","MEAN_MOTION":15.27604609,"ECCENTRICITY":0.0002764,"INCLINATION":42.9998,"RA_OF_ASC_NODE":225.4674,"ARG_OF_PERICENTER":243.9738,"MEAN_ANOMALY":116.0829,"EPHEMERIS_TYPE":0,"CLASSIFICATION_TYPE":"U","NORAD_CAT_ID":63581,"ELEMENT_SET_NO":999,"REV_AT_EPOCH":5443,"BSTAR":0.00098899,"MEAN_MOTION_DOT":0.00027075,"MEAN_MOTION_DDOT":0},{"OBJECT_NAME":"STARLINK-33814","OBJECT_ID":"2025-076P","EPOCH":"2026-03-26T16:36:05.961888","MEAN_MOTION":15.27600359,"ECCENTRICITY":0.000245,"INCLINATION":42.9987,"RA_OF_ASC_NODE":225.4121,"ARG_OF_PERICENTER":279.5899,"MEAN_ANOMALY":80.4675,"EPHEMERIS_TYPE":0,"CLASSIFICATION_TYPE":"U","NORAD_CAT_ID":63582,"ELEMENT_SET_NO":999,"REV_AT_EPOCH":5443,"BSTAR":0.0012074,"MEAN_MOTION_DOT":0.00033135,"MEAN_MOTION_DDOT":0}]
