STARLINK-32950          
1 63566U 25075U   26085.64290659  .00019893  00000+0  72966-3 0  9999
2 63566  43.0030 174.5309 0001570 268.4366  91.6306 15.27615821 54524
STARLINK-32954          
1 63567U 25075V   26085.65576470  .00022184  00000+0  81238-3 0  9998
2 63567  42.9993 174.6582 0001239 268.8467  91.2243 15.27615107 54526
STARLINK-32940          
1 63568U 25075W   26085.66090774  .00026829  00000+0  97994-3 0  9994
2 63568  42.9995 174.6970 0000964 269.9668  90.1073 15.27613126 54527
STARLINK-32959          
1 63569U 25076A   26085.67985315  .00022431  00000+0  82180-3 0  9997
2 63569  42.9980 229.7239 0000231 216.0102 144.0734 15.27594750 54383
STARLINK-32956          
1 63570U 25076B   26085.75279907  .00036032  00000+0  13118-2 0  9997
2 63570  43.0003 228.5426 0001572 276.0470  84.0203 15.27598797 54391
STARLINK-33722          
1 63571U 25076C   26085.44047821  .00020757  00000+0  76118-3 0  9999
2 63571  43.0031 226.9803 0001902 272.4156  87.6478 15.27602055 54387
STARLINK-33739          
1 63572U 25076D   26085.40978627  .00026077  00000+0  95349-3 0  9991
2 63572  42.9953 227.6086 0000819 297.6348  62.4420 15.27590488 54382
STARLINK-33683          
1 63573U 25076E   26085.40849913  .00019731  00000+0  72416-3 0  9996
2 63573  42.9954 227.5952 0001049 274.7737  85.2994 15.27601096 54386
STARLINK-33732          
1 63575U 25076G   26085.72257676  .00023081  00000+0  84517-3 0  9990
2 63575  42.9999 225.6580 0001705 269.7275  90.3381 15.27597921 54437
STARLINK-33800          
1 63576U 25076H   26085.69687920  .00033944  00000+0  12366-2 0  9997
2 63576  43.0007 225.4580 0000972 275.4039  84.6701 15.27600092 54431
STARLINK-33632          
1 63577U 25076J   26085.79824777  .00036295  00000+0  13207-2 0  9999
2 63577  42.9985 225.3610 0002011 280.5839  79.4786 15.27612465 54442
STARLINK-33719          
1 63578U 25076K   26085.70587129  .00030200  00000+0  11015-2 0  9993
2 63578  43.0026 225.5327 0002106 282.1352  77.9263 15.27608148 54436
STARLINK-33755          
1 63579U 25076L   26085.38021784  .00023246  00000+0  85098-3 0  9993
2 63579  43.0029 227.3009 0002100 268.9291  91.1320 15.27603757 54382
STARLINK-33752          
1 63580U 25076M   26085.85078989  .00031705  00000+0  11559-2 0  9995
2 63580  42.9953 224.8961 0000415 103.9214 256.1684 15.27603353 54453
STARLINK-33714          
1 63581U 25076N   26085.69816037  .00027075  00000+0  98899-3 0  9990
2 63581  42.9998 225.4674 0002764 243.9738 116.0829 15.27604609 54434
STARLINK-33814          
1 63582U 25076P   26085.69173567  .00033135  00000+0  12074-2 0  9999
2 63582  42.9987 225.4121 0002450 279.5899  80.4675 15.27600359 54436
